{
  "norad_id": 45751,
  "name": "STARLINK-1464",
  "history": [
    {
      "epoch": "2026-04-15T02:09:41.793984Z",
      "apogee_km": 422.9318172497469,
      "perigee_km": 418.384918883492,
      "latitude_deg": 5.268912936501409e-05,
      "longitude_deg": 155.2997667202513,
      "height_km": 421.3131031573546,
      "semi_major_axis_km": 6798.79536806662,
      "eccentricity": 0.00033439,
      "inclination_deg": 53.0498,
      "raan_deg": 30.981,
      "arg_perigee_deg": 84.0548,
      "mean_anomaly_deg": 276.0841,
      "mean_motion_rev_day": 15.48655457
    },
    {
      "epoch": "2026-04-16T18:25:47.239104Z",
      "apogee_km": 422.4908146496873,
      "perigee_km": 418.05009490022894,
      "latitude_deg": 4.193077466733126e-05,
      "longitude_deg": -98.41238140991179,
      "height_km": 421.10558504439496,
      "semi_major_axis_km": 6798.407454774958,
      "eccentricity": 0.0003266,
      "inclination_deg": 53.0502,
      "raan_deg": 22.9453,
      "arg_perigee_deg": 88.5735,
      "mean_anomaly_deg": 271.5647,
      "mean_motion_rev_day": 15.48788007
    },
    {
      "epoch": "2026-04-17T17:39:35.311104Z",
      "apogee_km": 422.26262592521743,
      "perigee_km": 417.8139000331239,
      "latitude_deg": -4.269723653184125e-06,
      "longitude_deg": -92.45283769875137,
      "height_km": 421.01871214761815,
      "semi_major_axis_km": 6798.17526297917,
      "eccentricity": 0.0003272,
      "inclination_deg": 53.0503,
      "raan_deg": 18.3092,
      "arg_perigee_deg": 92.319,
      "mean_anomaly_deg": 267.8192,
      "mean_motion_rev_day": 15.48867356
    },
    {
      "epoch": "2026-04-18T10:41:39.863328Z",
      "apogee_km": 422.01765303758293,
      "perigee_km": 417.70269231219845,
      "latitude_deg": 4.116960546519511e-06,
      "longitude_deg": 7.928715201911228,
      "height_km": 420.9253408866138,
      "semi_major_axis_km": 6797.99717267489,
      "eccentricity": 0.00031737,
      "inclination_deg": 53.0499,
      "raan_deg": 14.9093,
      "arg_perigee_deg": 94.6412,
      "mean_anomaly_deg": 265.4958,
      "mean_motion_rev_day": 15.48928221
    },
    {
      "epoch": "2026-04-19T00:37:52.918752Z",
      "apogee_km": 421.94398602315323,
      "perigee_km": 417.51707872871975,
      "latitude_deg": 5.880721386730912e-06,
      "longitude_deg": 155.51994828114505,
      "height_km": 420.831517446832,
      "semi_major_axis_km": 6797.867532375936,
      "eccentricity": 0.00032561,
      "inclination_deg": 53.0502,
      "raan_deg": 12.1273,
      "arg_perigee_deg": 95.4563,
      "mean_anomaly_deg": 264.6816,
      "mean_motion_rev_day": 15.4897253
    },
    {
      "epoch": "2026-04-19T23:51:30.854304Z",
      "apogee_km": 421.67410003288296,
      "perigee_km": 417.29765447205045,
      "latitude_deg": -1.3834201759837261e-05,
      "longitude_deg": 161.52036013155316,
      "height_km": 420.7085812442689,
      "semi_major_axis_km": 6797.622877252466,
      "eccentricity": 0.00032191,
      "inclination_deg": 53.0499,
      "raan_deg": 7.4897,
      "arg_perigee_deg": 98.7291,
      "mean_anomaly_deg": 261.4081,
      "mean_motion_rev_day": 15.49056155
    },
    {
      "epoch": "2026-04-21T20:45:34.842240Z",
      "apogee_km": 420.8212840266697,
      "perigee_km": 416.83282551932825,
      "latitude_deg": 6.641831507549645e-05,
      "longitude_deg": -162.808123693501,
      "height_km": 420.30273170525174,
      "semi_major_axis_km": 6796.964054772999,
      "eccentricity": 0.0002934,
      "inclination_deg": 53.0494,
      "raan_deg": 358.5218,
      "arg_perigee_deg": 107.0418,
      "mean_anomaly_deg": 253.0912,
      "mean_motion_rev_day": 15.49281383
    },
    {
      "epoch": "2026-04-22T01:24:15.308064Z",
      "apogee_km": 420.71991706703375,
      "perigee_km": 416.73994366728675,
      "latitude_deg": 7.972605227633876e-05,
      "longitude_deg": 126.40593229607393,
      "height_km": 420.2139273060142,
      "semi_major_axis_km": 6796.8669303671595,
      "eccentricity": 0.00029278,
      "inclination_deg": 53.0491,
      "raan_deg": 357.5952,
      "arg_perigee_deg": 107.3302,
      "mean_anomaly_deg": 252.8027,
      "mean_motion_rev_day": 15.49314591
    },
    {
      "epoch": "2026-04-22T23:04:41.116800Z",
      "apogee_km": 420.3566567469434,
      "perigee_km": 416.54377131987167,
      "latitude_deg": -4.787922294056789e-05,
      "longitude_deg": 156.07878544415047,
      "height_km": 420.0137825866635,
      "semi_major_axis_km": 6796.587214033408,
      "eccentricity": 0.0002805,
      "inclination_deg": 53.049,
      "raan_deg": 353.2658,
      "arg_perigee_deg": 110.6407,
      "mean_anomaly_deg": 249.4901,
      "mean_motion_rev_day": 15.49410236
    },
    {
      "epoch": "2026-04-24T19:58:09.909696Z",
      "apogee_km": 419.6374610408129,
      "perigee_km": 416.06277181757196,
      "latitude_deg": 4.9336164542828456e-05,
      "longitude_deg": -168.10363632678101,
      "height_km": 419.5186014949761,
      "semi_major_axis_km": 6795.987116429193,
      "eccentricity": 0.000263,
      "inclination_deg": 53.05,
      "raan_deg": 344.2969,
      "arg_perigee_deg": 115.7459,
      "mean_anomaly_deg": 244.3821,
      "mean_motion_rev_day": 15.49615464
    },
    {
      "epoch": "2026-04-25T20:44:04.121376Z",
      "apogee_km": 419.1108663095438,
      "perigee_km": 415.8625581750921,
      "latitude_deg": -5.603388770167256e-05,
      "longitude_deg": 174.45463782888825,
      "height_km": 419.25453925671377,
      "semi_major_axis_km": 6795.623712242317,
      "eccentricity": 0.000239,
      "inclination_deg": 53.049,
      "raan_deg": 339.3482,
      "arg_perigee_deg": 122.6083,
      "mean_anomaly_deg": 237.5155,
      "mean_motion_rev_day": 15.49739767
    },
    {
      "epoch": "2026-04-26T21:29:50.612352Z",
      "apogee_km": 418.6215785177301,
      "perigee_km": 415.5294850072778,
      "latitude_deg": 7.909335454378668e-06,
      "longitude_deg": 157.0434970017861,
      "height_km": 418.9324046433857,
      "semi_major_axis_km": 6795.212531762504,
      "eccentricity": 0.00022752,
      "inclination_deg": 53.0484,
      "raan_deg": 334.3977,
      "arg_perigee_deg": 128.5728,
      "mean_anomaly_deg": 231.5484,
      "mean_motion_rev_day": 15.49880432
    },
    {
      "epoch": "2026-04-27T19:09:46.296864Z",
      "apogee_km": 418.04536096452375,
      "perigee_km": 415.23504111417515,
      "latitude_deg": 1.4116457525882958e-07,
      "longitude_deg": -173.15999604589393,
      "height_km": 418.46881169125487,
      "semi_major_axis_km": 6794.777201039349,
      "eccentricity": 0.0002068,
      "inclination_deg": 53.0493,
      "raan_deg": 330.066,
      "arg_perigee_deg": 131.7254,
      "mean_anomaly_deg": 228.3931,
      "mean_motion_rev_day": 15.50029382
    },
    {
      "epoch": "2026-04-28T19:55:14.904768Z",
      "apogee_km": 417.3937927287034,
      "perigee_km": 414.8867044239787,
      "latitude_deg": -3.878549901344037e-05,
      "longitude_deg": 169.50320325052928,
      "height_km": 418.0072714716847,
      "semi_major_axis_km": 6794.277248576341,
      "eccentricity": 0.0001845,
      "inclination_deg": 53.0487,
      "raan_deg": 325.1152,
      "arg_perigee_deg": 140.9213,
      "mean_anomaly_deg": 219.1928,
      "mean_motion_rev_day": 15.50200472
    },
    {
      "epoch": "2026-04-29T17:34:55.007904Z",
      "apogee_km": 416.86178856901824,
      "perigee_km": 414.60486484648754,
      "latitude_deg": -2.214958050644901e-05,
      "longitude_deg": -160.636471797781,
      "height_km": 417.55670574134615,
      "semi_major_axis_km": 6793.870326707753,
      "eccentricity": 0.0001661,
      "inclination_deg": 53.0487,
      "raan_deg": 320.7822,
      "arg_perigee_deg": 145.4209,
      "mean_anomaly_deg": 214.6907,
      "mean_motion_rev_day": 15.50339749
    },
    {
      "epoch": "2026-04-30T13:41:39.270624Z",
      "apogee_km": 416.5302148791834,
      "perigee_km": 414.22408856524,
      "latitude_deg": 1.1904876059713596e-05,
      "longitude_deg": -107.17165713646938,
      "height_km": 417.3156959328365,
      "semi_major_axis_km": 6793.514151722211,
      "eccentricity": 0.00016973,
      "inclination_deg": 53.0474,
      "raan_deg": 316.7574,
      "arg_perigee_deg": 154.8894,
      "mean_anomaly_deg": 205.2197,
      "mean_motion_rev_day": 15.50461674
    },
    {
      "epoch": "2026-05-02T05:54:50.673312Z",
      "apogee_km": 415.5129908164081,
      "perigee_km": 413.76045519587115,
      "latitude_deg": 4.4261295778643353e-05,
      "longitude_deg": -0.16891612006955573,
      "height_km": 416.3644549735173,
      "semi_major_axis_km": 6792.773723006139,
      "eccentricity": 0.000129,
      "inclination_deg": 53.0487,
      "raan_deg": 308.7094,
      "arg_perigee_deg": 161.8424,
      "mean_anomaly_deg": 198.2631,
      "mean_motion_rev_day": 15.50715187
    },
    {
      "epoch": "2026-05-03T17:29:13.047072Z",
      "apogee_km": 414.46480581057494,
      "perigee_km": 413.25583028796154,
      "latitude_deg": 2.3131403351865813e-06,
      "longitude_deg": 177.65419829399139,
      "height_km": 415.35961404629245,
      "semi_major_axis_km": 6791.997318049268,
      "eccentricity": 8.9e-05,
      "inclination_deg": 53.0479,
      "raan_deg": 301.5867,
      "arg_perigee_deg": 183.0658,
      "mean_anomaly_deg": 177.0345,
      "mean_motion_rev_day": 15.50981092
    },
    {
      "epoch": "2026-05-04T19:46:34.633344Z",
      "apogee_km": 414.0320619685763,
      "perigee_km": 412.6452426403757,
      "latitude_deg": 3.2859539715521114e-05,
      "longitude_deg": 136.9694101836072,
      "height_km": 414.724612216044,
      "semi_major_axis_km": 6791.475652304475,
      "eccentricity": 0.0001021,
      "inclination_deg": 53.0485,
      "raan_deg": 296.3215,
      "arg_perigee_deg": 225.1089,
      "mean_anomaly_deg": 134.9837,
      "mean_motion_rev_day": 15.51159796
    }
  ]
}